GPS BIIR-5  (PRN 22)    
1 26407U 00040A   26201.34409367  .00000063  00000+0  00000+0 0  9997
2 26407  54.8480 213.8451 0120372 302.8108 161.3628  2.00557971190611
GPS BIIR-8  (PRN 16)    
1 27663U 03005A   26201.26349584  .00000062  00000+0  00000+0 0  9990
2 27663  54.8784 213.6545 0148395  53.1892 129.0086  2.00558827171974
GPS BIIR-11 (PRN 19)    
1 28190U 04009A   26201.30538733 -.00000051  00000+0  00000+0 0  9991
2 28190  54.8023 274.3476 0117338 174.5558 190.3314  2.00553616163611
GPS BIIR-13 (PRN 02)    
1 28474U 04045A   26200.99845010 -.00000107  00000+0  00000+0 0  9991
2 28474  55.1149 323.5747 0170263 317.1768 251.2314  2.00557373159088
GPS BIIRM-1 (PRN 17)    
1 28874U 05038A   26201.34761686 -.00000046  00000+0  00000+0 0  9996
2 28874  54.8514 271.8375 0128303 296.4798 128.7830  2.00563444152503
GPS BIIRM-2 (PRN 31)    
1 29486U 06042A   26201.53562509  .00000034  00000+0  00000+0 0  9992
2 29486  54.7131 150.0149 0107330  55.3112  44.7429  2.00567979145064
GPS BIIRM-3 (PRN 12)    
1 29601U 06052A   26200.82666868  .00000058  00000+0  00000+0 0  9992
2 29601  54.9319 212.7123 0084746  91.0071 269.9911  2.00559979144064
GPS BIIRM-4 (PRN 15)    
1 32260U 07047A   26201.13252352 -.00000064  00000+0  00000+0 0  9994
2 32260  54.1195  78.7075 0167952  88.1073 273.8731  2.00553782137476
GPS BIIRM-5 (PRN 29)    
1 32384U 07062A   26201.45513610 -.00000047  00000+0  00000+0 0  9991
2 32384  55.0052 272.8137 0036066 167.9290 193.1150  2.00561991136186
GPS BIIRM-6 (PRN 07)    
1 32711U 08012A   26201.04071868  .00000034  00000+0  00000+0 0  9995
2 32711  54.5004 148.6123 0211725 248.1970 109.5164  2.00573308134415
GPS BIIRM-8 (PRN 05)    
1 35752U 09043A   26201.27567995 -.00000090  00000+0  00000+0 0  9997
2 35752  56.2311  26.1534 0053667  84.6135  92.2498  2.00552591124029
GPS BIIF-1  (PRN 25)    
1 36585U 10022A   26201.36147286  .00000068  00000+0  00000+0 0  9992
2 36585  54.2682 207.2257 0126856  66.1603 292.7704  2.00564074118257
GPS BIIF-3  (PRN 24)    
1 38833U 12053A   26200.72298785  .00000024  00000+0  00000+0 0  9998
2 38833  53.5900 142.2664 0182319  66.3029 295.5767  2.00568051100092
GPS BIIF-4  (PRN 27)    
1 39166U 13023A   26201.08939617 -.00000038  00000+0  00000+0 0  9998
2 39166  54.4792 267.6316 0141392  51.1093 310.2110  2.00563399 96547
GPS BIIF-5  (PRN 30)    
1 39533U 14008A   26201.09126277  .00000031  00000+0  00000+0 0  9993
2 39533  53.6581 147.9776 0084050 231.5729 127.6475  2.00561932 90346
GPS BIIF-6  (PRN 06)    
1 39741U 14026A   26201.36747109 -.00000107  00000+0  00000+0 0  9992
2 39741  56.4802 330.2261 0038171 325.6400  34.1182  2.00558630 89205
GPS BIIF-7  (PRN 09)    
1 40105U 14045A   26200.96051760 -.00000053  00000+0  00000+0 0  9995
2 40105  55.3745  87.1591 0034747 118.4820 241.9209  2.00560594 86733
GPS BIIF-8  (PRN 03)    
1 40294U 14068A   26201.32757640 -.00000086  00000+0  00000+0 0  9996
2 40294  57.0105  29.6792 0067443  72.4547 288.3175  2.00553617 85878
GPS BIIF-9  (PRN 26)    
1 40534U 15013A   26200.97012806  .00000064  00000+0  00000+0 0  9997
2 40534  53.2396 202.8474 0109920  39.9101 320.9028  2.00574099 82489
GPS BIIF-10 (PRN 08)    
1 40730U 15033A   26200.62991453 -.00000036  00000+0  00000+0 0  9993
2 40730  53.9579 265.7473 0115431  30.2916 330.4403  2.00554635 80649
GPS BIIF-11 (PRN 10)    
1 41019U 15062A   26201.18310580 -.00000087  00000+0  00000+0 0  9990
2 41019  56.9818  29.5410 0113063 230.8561 128.1675  2.00567091 78492
GPS BIIF-12 (PRN 32)    
1 41328U 16007A   26201.27421160 -.00000055  00000+0  00000+0 0  9995
2 41328  55.5443  88.1473 0096648 247.5757 111.4487  2.00575239 76504
GPS BIII-1  (PRN 04)    
1 43873U 18109A   26201.16078662 -.00000051  00000+0  00000+0 0  9996
2 43873  55.7017  90.8853 0038740 197.0641 335.1584  2.00563208 55730
GPS BIII-2  (PRN 18)    
1 44506U 19056A   26201.53789073 -.00000109  00000+0  00000+0 0  9992
2 44506  55.6191 329.8169 0063658 198.2353 150.7454  2.00570379 50739
GPS BIII-3  (PRN 23)    
1 45854U 20041A   26200.88314466 -.00000088  00000+0  00000+0 0  9998
2 45854  56.6917  27.6753 0065442 204.6789 328.4725  2.00557951 44697
GPS BIII-4  (PRN 14)    
1 46826U 20078A   26201.40901153  .00000066  00000+0  00000+0 0  9997
2 46826  53.9767 209.4308 0074664 207.9413 322.4110  2.00565064 42179
GPS BIII-5  (PRN 11)    
1 48859U 21054A   26201.42622716 -.00000110  00000+0  00000+0 0  9998
2 48859  55.1567 331.1232 0026562 228.5811 140.5597  2.00567041 37420
GPS BIII-6  (PRN 28)    
1 55268U 23009A   26201.48973162  .00000030  00000+0  00000+0 0  9992
2 55268  55.1255 147.2099 0005529 333.2721 120.4416  2.00569361 25912
GPS BIII-7  (PRN 01)    
1 62339U 24242A   26200.72170847 -.00000109  00000+0  00000+0 0  9992
2 62339  54.8338 332.8621 0017996   4.3540 337.1791  2.00572353 11908
GPS BIII-8  (PRN 21)    
1 64202U 25116A   26201.23864223 -.00000090  00000+0  00000+0 0  9998
2 64202  55.2573  29.8008 0008456 339.3392 198.6122  2.00573629  8534
GPS BIII-9  (PRN 20)    
1 67588U 26017A   26201.10242183 -.00000054  00000+0  00000+0 0  9990
2 67588  55.1095  87.4339 0021305 260.2926  99.5185  2.00570435432274
GPS BIII-10 (PRN 13)    
1 68791U 26087A   26201.26727831  .00000068  00000+0  00000+0 0  9993
2 68791  54.9613 206.4792 0020525 106.0405 218.5629  2.00573151  1492
